NORAD_CAT_ID,OBJECT_NAME,OBJECT_TYPE,EPOCH,MEAN_MOTION,ECCENTRICITY,INCLINATION,RA_OF_ASC_NODE,ARG_OF_PERICENTER,MEAN_ANOMALY,BSTAR,MEAN_MOTION_DOT,MEAN_MOTION_DDOT,TLE_LINE0,TLE_LINE1,TLE_LINE2,SEMIMAJOR_AXIS,PERIOD,APOGEE,PERIGEE,DECAYED
53818.0,STARLINK-4749,PAYLOAD,2024-02-11 08:24:12,15.16388444,0.0001571,53.2185,84.9192,91.7946,268.3229,2.7091e-05,2.22e-06,0.0,0 STARLINK-4749,1 53818U 22114A   24042.35014043  .00000222  00000-0  27091-4 0  9996,2 53818  53.2185  84.9192 0001571  91.7946 268.3229 15.16388444 78870,6894.904,94.962,517.852,515.685,0.0
53818.0,STARLINK-4749,PAYLOAD,2024-02-12 11:17:40,15.16391739,0.0001527,53.2182,79.8299,81.5783,278.5386,-1.3615e-05,-5.78e-06,0.0,0 STARLINK-4749,1 53818U 22114A   24043.47060669 -.00000578  00000-0 -13615-4 0  9998,2 53818  53.2182  79.8299 0001527  81.5783 278.5386 15.16391739 78402,6894.894,94.962,517.811,515.706,0.0
53818.0,STARLINK-4749,PAYLOAD,2024-02-12 12:52:35,15.16389771,0.0001581,53.2185,79.5317,72.8076,287.3092,-2.2656e-05,-7.56e-06,0.0,0 STARLINK-4749,1 53818U 22114A   24043.53651871 -.00000756  00000-0 -22656-4 0  9999,2 53818  53.2185  79.5317 0001581  72.8076 287.3092 15.16389771 79058,6894.9,94.962,517.855,515.674,0.0
53818.0,STARLINK-4749,PAYLOAD,2024-02-13 11:01:19,15.16394133,0.0001757,53.219,75.3402,71.3014,288.8172,-3.1437e-05,-9.29e-06,0.0,0 STARLINK-4749,1 53818U 22114A   24044.45925515 -.00000929  00000-0 -31437-4 0  9999,2 53818  53.2190  75.3402 0001757  71.3014 288.8172 15.16394133 79192,6894.886,94.962,517.963,515.54,0.0
53818.0,STARLINK-4749,PAYLOAD,2024-02-13 18:55:52,15.16396114,0.0001539,53.2174,73.8445,83.8697,276.2474,-1.8271e-05,-6.7e-06,0.0,0 STARLINK-4749,1 53818U 22114A   24044.78880093 -.00000670  00000-0 -18271-4 0  9990,2 53818  53.2174  73.8445 0001539  83.8697 276.2474 15.16396114 78609,6894.88,94.962,517.806,515.684,0.0
53818.0,STARLINK-4749,PAYLOAD,2024-02-14 09:10:03,15.16392337,0.0001568,53.2177,71.1491,82.3762,277.7412,-1.6004e-05,-6.25e-06,0.0,0 STARLINK-4749,1 53818U 22114A   24045.38199043 -.00000625  00000-0 -16004-4 0  9997,2 53818  53.2177  71.1491 0001568  82.3762 277.7412 15.16392337 79335,6894.892,94.962,517.838,515.676,0.0
53818.0,STARLINK-4749,PAYLOAD,2024-02-14 18:39:32,15.16374421,0.0001565,53.2172,69.3538,93.2306,266.8869,0.00016699,2.971e-05,0.0,0 STARLINK-4749,1 53818U 22114A   24045.77745392  .00002971  00000-0  16699-3 0  9997,2 53818  53.2172  69.3538 0001565  93.2306 266.8869 15.16374421 78757,6894.946,94.963,517.89,515.732,0.0
53818.0,STARLINK-4749,PAYLOAD,2024-02-15 00:59:10,15.16389465,0.0001537,53.2171,68.1555,87.168,272.9491,8.2551e-07,-2.94e-06,0.0,0 STARLINK-4749,1 53818U 22114A   24046.04109040 -.00000294  00000-0  82551-6 0  9992,2 53818  53.2171  68.1555 0001537  87.1680 272.9491 15.16389465 78795,6894.9,94.962,517.825,515.706,0.0
53818.0,STARLINK-4749,PAYLOAD,2024-02-15 10:28:37,15.16394923,0.0001472,53.217,66.36,86.9857,273.1307,-2.2217e-05,-7.47e-06,0.0,0 STARLINK-4749,1 53818U 22114A   24046.43654698 -.00000747  00000-0 -22217-4 0  9994,2 53818  53.2170  66.3600 0001472  86.9857 273.1307 15.16394923 79498,6894.884,94.962,517.764,515.734,0.0
53818.0,STARLINK-4749,PAYLOAD,2024-02-15 18:23:10,15.16394565,0.0001458,53.2171,64.8635,87.6886,272.4276,-1.4707e-05,-6e-06,0.0,0 STARLINK-4749,1 53818U 22114A   24046.76609579 -.00000600  00000-0 -14707-4 0  9991,2 53818  53.2171  64.8635 0001458  87.6886 272.4276 15.16394565 79549,6894.885,94.962,517.755,515.745,0.0
53818.0,STARLINK-4749,PAYLOAD,2024-02-16 08:37:21,15.16397618,0.0001732,53.2184,62.1689,86.626,273.4933,3.1636e-05,3.11e-06,0.0,0 STARLINK-4749,1 53818U 22114A   24047.35928043  .00000311  00000-0  31636-4 0  9994,2 53818  53.2184  62.1689 0001732  86.6260 273.4933 15.16397618 78994,6894.876,94.962,517.935,515.547,0.0
53818.0,STARLINK-4749,PAYLOAD,2024-02-17 08:21:01,15.16395479,0.0001649,53.2183,57.6782,84.1502,275.9681,-3.4333e-05,-9.85e-06,0.0,0 STARLINK-4749,1 53818U 22114A   24048.34793199 -.00000985  00000-0 -34333-4 0  9992,2 53818  53.2183  57.6782 0001649  84.1502 275.9681 15.16395479 79143,6894.882,94.962,517.884,515.61,0.0
53818.0,STARLINK-4749,PAYLOAD,2024-02-17 17:50:28,15.16395298,0.0001835,53.2188,55.8829,80.0658,280.0545,2.5562e-05,1.92e-06,0.0,0 STARLINK-4749,1 53818U 22114A   24048.74338907  .00000192  00000-0  25562-4 0  9990,2 53818  53.2188  55.8829 0001835  80.0658 280.0545 15.16395298 79846,6894.883,94.962,518.013,515.483,0.0
53818.0,STARLINK-4749,PAYLOAD,2024-02-18 06:29:45,15.16401889,0.0001734,53.2188,53.4879,87.4446,272.6748,3.8597e-05,4.48e-06,0.0,0 STARLINK-4749,1 53818U 22114A   24049.27066116  .00000448  00000-0  38597-4 0  9995,2 53818  53.2188  53.4879 0001734  87.4446 272.6748 15.16401889 79283,6894.863,94.962,517.923,515.532,0.0
53818.0,STARLINK-4749,PAYLOAD,2024-02-18 17:34:07,15.16402143,0.0001662,53.2188,51.3927,87.0518,273.0668,-7.6721e-05,-1.819e-05,0.0,0 STARLINK-4749,1 53818U 22114A   24049.73203332 -.00001819  00000-0 -76721-4 0  9995,2 53818  53.2188  51.3927 0001662  87.0518 273.0668 15.16402143 79998,6894.862,94.962,517.873,515.581,0.0
53818.0,STARLINK-4749,PAYLOAD,2024-02-19 09:23:13,15.16397242,0.0001674,53.2185,48.3986,89.335,270.7837,4.7861e-05,6.3e-06,0.0,0 STARLINK-4749,1 53818U 22114A   24050.39112988  .00000630  00000-0  47861-4 0  9996,2 53818  53.2185  48.3986 0001674  89.3350 270.7837 15.16397242 80096,6894.877,94.962,517.896,515.588,0.0
53818.0,STARLINK-4749,PAYLOAD,2024-02-19 17:17:46,15.1639221,0.0001709,53.2183,46.9015,90.7575,269.3616,4.936e-05,6.6e-06,0.0,0 STARLINK-4749,1 53818U 22114A   24050.72068210  .00000660  00000-0  49360-4 0  9990,2 53818  53.2183  46.9015 0001709  90.7575 269.3616 15.16392210 79508,6894.892,94.962,517.936,515.579,0.0
53818.0,STARLINK-4749,PAYLOAD,2024-02-20 04:22:08,15.16403877,0.0001917,53.2161,44.8063,90.0954,270.0261,-1.6578e-05,-6.37e-06,0.0,0 STARLINK-4749,1 53818U 22114A   24051.18204552 -.00000637  00000-0 -16578-4 0  9993,2 53818  53.2161  44.8063 0001917  90.0954 270.0261 15.16403877 79573,6894.857,94.962,518.044,515.4,0.0
53818.0,STARLINK-4749,PAYLOAD,2024-02-20 05:57:03,15.16398703,0.0001513,53.2182,44.508,89.8867,270.2302,5.5973e-06,-2.01e-06,0.0,0 STARLINK-4749,1 53818U 22114A   24051.24795685 -.00000201  00000-0  55973-5 0  9991,2 53818  53.2182  44.5080 0001513  89.8867 270.2302 15.16398703 80226,6894.872,94.962,517.781,515.694,0.0
53818.0,STARLINK-4749,PAYLOAD,2024-02-20 17:01:25,15.16398266,0.0001577,53.2183,42.4123,91.9182,268.1994,5.3218e-05,7.36e-06,0.0,0 STARLINK-4749,1 53818U 22114A   24051.70932266  .00000736  00000-0  53218-4 0  9991,2 53818  53.2183  42.4123 0001577  91.9182 268.1994 15.16398266 80290,6894.874,94.962,517.826,515.651,0.0
53818.0,STARLINK-4749,PAYLOAD,2024-02-21 04:05:47,15.16397235,0.0001459,53.2194,40.3176,88.8888,271.2275,6.0023e-05,8.69e-06,0.0,0 STARLINK-4749,1 53818U 22114A   24052.17069007  .00000869  00000-0  60023-4 0  9996,2 53818  53.2194  40.3176 0001459  88.8888 271.2275 15.16397235 79722,6894.877,94.962,517.748,515.736,0.0
53818.0,STARLINK-4749,PAYLOAD,2024-02-21 05:40:42,15.16393777,0.0001356,53.2188,40.0185,88.0069,272.1081,4.3584e-05,5.46e-06,0.0,0 STARLINK-4749,1 53818U 22114A   24052.23660247  .00000546  00000-0  43584-4 0  9991,2 53818  53.2188  40.0185 0001356  88.0069 272.1081 15.16393777 80376,6894.887,94.962,517.687,515.817,0.0
53818.0,STARLINK-4749,PAYLOAD,2024-02-22 03:49:27,15.16391019,0.0001373,53.219,35.8278,88.2798,271.8355,6.924e-06,-1.74e-06,0.0,0 STARLINK-4749,1 53818U 22114A   24053.15934299 -.00000174  00000-0  69240-5 0  9990,2 53818  53.2190  35.8278 0001373  88.2798 271.8355 15.16391019 79874,6894.896,94.962,517.707,515.814,0.0
53818.0,STARLINK-4749,PAYLOAD,2024-02-22 08:34:10,15.16397464,0.000139,53.2191,34.9284,91.5343,268.5812,1.4716e-05,-2.1e-07,0.0,0 STARLINK-4749,1 53818U 22114A   24053.35706749 -.00000021  00000-0  14716-4 0  9997,2 53818  53.2191  34.9284 0001390  91.5343 268.5812 15.16397464 80541,6894.876,94.962,517.7,515.783,0.0
53818.0,STARLINK-4749,PAYLOAD,2024-02-23 05:08:00,15.16395013,0.000143,53.2195,31.0355,94.051,266.0649,-5.1337e-06,-4.11e-06,0.0,0 STARLINK-4749,1 53818U 22114A   24054.21389556 -.00000411  00000-0 -51337-5 0  9991,2 53818  53.2195  31.0355 0001430  94.0510 266.0649 15.16395013 80674,6894.884,94.962,517.735,515.763,0.0
53818.0,STARLINK-4749,PAYLOAD,2024-02-23 22:32:01,15.16392381,0.0001511,53.22,27.7433,95.4267,264.6901,3.0707e-06,-2.5e-06,0.0,0 STARLINK-4749,1 53818U 22114A   24054.93890526 -.00000250  00000-0  30707-5 0  9992,2 53818  53.2200  27.7433 0001511  95.4267 264.6901 15.16392381 80786,6894.892,94.962,517.798,515.715,0.0
53818.0,STARLINK-4749,PAYLOAD,2024-02-24 03:16:45,15.16396365,0.0001514,53.2202,26.8455,94.3139,265.803,-1.3157e-05,-5.69e-06,0.0,0 STARLINK-4749,1 53818U 22114A   24055.13663294 -.00000569  00000-0 -13157-4 0  9998,2 53818  53.2202  26.8455 0001514  94.3139 265.8030 15.16396365 80176,6894.88,94.962,517.788,515.701,0.0
53818.0,STARLINK-4749,PAYLOAD,2024-02-24 08:01:29,15.16383078,0.0001627,53.2203,25.9479,102.2091,257.9087,0.00010889,1.83e-05,0.0,0 STARLINK-4749,1 53818U 22114A   24055.33436443  .00001830  00000-0  10889-3 0  9992,2 53818  53.2203  25.9479 0001627 102.2091 257.9087 15.16383078 80849,6894.92,94.963,517.907,515.663,0.0
53818.0,STARLINK-4749,PAYLOAD,2024-02-25 04:35:18,15.16395143,0.000139,53.22,22.0589,106.2624,253.8525,-7.4951e-06,-4.58e-06,0.0,0 STARLINK-4749,1 53818U 22114A   24056.19118698 -.00000458  00000-0 -74951-5 0  9995,2 53818  53.2200  22.0589 0001390 106.2624 253.8525 15.16395143 80331,6894.883,94.962,517.707,515.79,0.0
53818.0,STARLINK-4749,PAYLOAD,2024-02-25 14:04:46,15.16393906,0.0001261,53.2193,20.2624,103.8303,256.2833,-6.2142e-05,-1.532e-05,0.0,0 STARLINK-4749,1 53818U 22114A   24056.58664778 -.00001532  00000-0 -62142-4 0  9995,2 53818  53.2193  20.2624 0001261 103.8303 256.2833 15.16393906 81038,6894.887,94.962,517.621,515.883,0.0
